NORAD_CAT_ID,OBJECT_NAME,OBJECT_TYPE,EPOCH,MEAN_MOTION,ECCENTRICITY,INCLINATION,RA_OF_ASC_NODE,ARG_OF_PERICENTER,MEAN_ANOMALY,BSTAR,MEAN_MOTION_DOT,MEAN_MOTION_DDOT,TLE_LINE0,TLE_LINE1,TLE_LINE2,SEMIMAJOR_AXIS,PERIOD,APOGEE,PERIGEE,DECAYED
53181.0,STARLINK-4273,PAYLOAD,2023-02-07 17:49:09,15.08865543,0.0001151,53.2203,138.4533,101.3659,258.7463,0.00025548,3.783e-05,0.0,0 STARLINK-4273,1 53181U 22083BB  23038.74246948  .00003783  00000-0  25548-3 0  9991,2 53181  53.2203 138.4533 0001151 101.3659 258.7463 15.08865543 32572,6917.802,95.436,540.464,538.871,0.0
53181.0,STARLINK-4273,PAYLOAD,2023-02-08 12:53:48,15.088498,0.0001146,53.2211,134.8851,99.2979,260.8143,-0.0001021,-1.913e-05,0.0,0 STARLINK-4273,1 53181U 22083BB  23039.53737088 -.00001913  00000-0 -10210-3 0  9994,2 53181  53.2211 134.8851 0001146  99.2979 260.8143 15.08849800 32698,6917.85,95.437,540.508,538.923,0.0
53181.0,STARLINK-4273,PAYLOAD,2023-02-08 14:29:11,15.0884928,0.0001292,53.2207,134.5832,128.3376,231.7732,-2.1604e-05,-6.32e-06,0.0,0 STARLINK-4273,1 53181U 22083BB  23039.60360643 -.00000632  00000-0 -21604-4 0  9998,2 53181  53.2207 134.5832 0001292 128.3376 231.7732 15.08849280 32060,6917.852,95.437,540.611,538.823,0.0
53181.0,STARLINK-4273,PAYLOAD,2023-02-09 06:23:04,15.08833139,8.7e-05,53.2207,131.6156,101.8115,258.2975,-7.881e-05,-1.541e-05,0.0,0 STARLINK-4273,1 53181U 22083BB  23040.26602024 -.00001541  00000-0 -78810-4 0  9995,2 53181  53.2207 131.6156 0000870 101.8115 258.2975 15.08833139 32806,6917.901,95.438,540.368,539.165,0.0
53181.0,STARLINK-4273,PAYLOAD,2023-02-09 11:09:13,15.08838943,0.0001279,53.2203,130.7233,102.4689,257.6446,-2.1317e-05,-6.27e-06,0.0,0 STARLINK-4273,1 53181U 22083BB  23040.46473641 -.00000627  00000-0 -21317-4 0  9992,2 53181  53.2203 130.7233 0001279 102.4689 257.6446 15.08838943 32191,6917.884,95.438,540.633,538.864,0.0
53181.0,STARLINK-4273,PAYLOAD,2023-02-09 22:16:54,15.08849485,9.18e-05,53.2204,128.6416,94.1454,265.9643,-9.453e-05,-1.792e-05,0.0,0 STARLINK-4273,1 53181U 22083BB  23040.92841054 -.00001792  00000-0 -94530-4 0  9991,2 53181  53.2204 128.6416 0000918  94.1454 265.9643 15.08849485 32900,6917.851,95.437,540.351,539.081,0.0
53181.0,STARLINK-4273,PAYLOAD,2023-02-10 14:10:45,15.08852315,6.57e-05,53.22,125.6647,106.1575,253.949,0.00011585,1.557e-05,0.0,0 STARLINK-4273,1 53181U 22083BB  23041.59080744  .00001557  00000-0  11585-3 0  9991,2 53181  53.2200 125.6647 0000657 106.1575 253.9490 15.08852315 32360,6917.843,95.437,540.162,539.253,0.0
53181.0,STARLINK-4273,PAYLOAD,2023-02-11 07:40:01,15.08834253,0.0001295,53.2219,122.4012,97.4968,262.6171,0.00011049,1.471e-05,0.0,0 STARLINK-4273,1 53181U 22083BB  23042.31946587  .00001471  00000-0  11049-3 0  9998,2 53181  53.2219 122.4012 0001295  97.4968 262.6171 15.08834253 33116,6917.898,95.438,540.659,538.867,0.0
53181.0,STARLINK-4273,PAYLOAD,2023-02-11 14:01:33,15.08849856,8.94e-05,53.2201,121.2077,84.4066,275.7028,0.00019908,2.883e-05,0.0,0 STARLINK-4273,1 53181U 22083BB  23042.58441262  .00002883  00000-0  19908-3 0  9997,2 53181  53.2201 121.2077 0000894  84.4066 275.7028 15.08849856 33159,6917.85,95.437,540.334,539.097,0.0
53181.0,STARLINK-4273,PAYLOAD,2023-02-11 21:58:29,15.08837613,8.77e-05,53.2199,119.7206,75.0917,285.0173,7.1337e-05,8.48e-06,0.0,0 STARLINK-4273,1 53181U 22083BB  23042.91562393  .00000848  00000-0  71337-4 0  9997,2 53181  53.2199 119.7206 0000877  75.0917 285.0173 15.08837613 33202,6917.888,95.438,540.359,539.146,0.0
53181.0,STARLINK-4273,PAYLOAD,2023-02-12 13:52:20,15.0885594,0.0001291,53.2202,116.7507,91.0808,269.0332,0.00011828,1.596e-05,0.0,0 STARLINK-4273,1 53181U 22083BB  23043.57801487  .00001596  00000-0  11828-3 0  9999,2 53181  53.2202 116.7507 0001291  91.0808 269.0332 15.08855940 33309,6917.832,95.437,540.59,538.804,0.0
53181.0,STARLINK-4273,PAYLOAD,2023-02-13 04:10:49,15.08834321,0.0001398,53.2189,114.0737,88.769,271.3462,2.1027e-05,4.7e-07,0.0,0 STARLINK-4273,1 53181U 22083BB  23044.17418606  .00000047  00000-0  21027-4 0  9996,2 53181  53.2189 114.0737 0001398  88.7690 271.3462 15.08834321 33398,6917.898,95.438,540.73,538.796,0.0
53181.0,STARLINK-4273,PAYLOAD,2023-02-13 07:21:36,15.08834835,0.0001377,53.2198,113.4791,89.6099,270.5051,8.9675e-05,1.139e-05,0.0,0 STARLINK-4273,1 53181U 22083BB  23044.30666926  .00001139  00000-0  89675-4 0  9997,2 53181  53.2198 113.4791 0001377  89.6099 270.5051 15.08834835 32777,6917.896,95.438,540.714,538.809,0.0
53181.0,STARLINK-4273,PAYLOAD,2023-02-13 13:43:08,15.08845622,0.000157,53.2202,112.2912,74.3642,285.7523,0.00013714,1.896e-05,0.0,0 STARLINK-4273,1 53181U 22083BB  23044.57162257  .00001896  00000-0  13714-3 0  9994,2 53181  53.2202 112.2912 0001570  74.3642 285.7523 15.08845622 33459,6917.863,95.437,540.814,538.642,0.0
53181.0,STARLINK-4273,PAYLOAD,2023-02-14 04:01:37,15.0883749,0.0001978,53.2201,109.6141,80.3258,279.7957,3.4782e-05,2.65e-06,0.0,0 STARLINK-4273,1 53181U 22083BB  23045.16779080  .00000265  00000-0  34782-4 0  9996,2 53181  53.2201 109.6141 0001978  80.3258 279.7957 15.08837490 33542,6917.888,95.438,541.121,538.385,0.0
53181.0,STARLINK-4273,PAYLOAD,2023-02-14 10:23:09,15.08838455,0.0001677,53.2198,108.4241,83.2973,276.821,5.4637e-05,5.82e-06,0.0,0 STARLINK-4273,1 53181U 22083BB  23045.43275067  .00000582  00000-0  54637-4 0  9995,2 53181  53.2198 108.4241 0001677  83.2973 276.8210 15.08838455 32942,6917.885,95.438,540.91,538.59,0.0
53181.0,STARLINK-4273,PAYLOAD,2023-02-14 21:30:52,15.08830648,4.75e-05,53.2198,106.3418,99.3835,260.7211,-0.00020226,-3.504e-05,0.0,0 STARLINK-4273,1 53181U 22083BB  23045.89644159 -.00003504  00000-0 -20226-3 0  9992,2 53181  53.2198 106.3418 0000475  99.3835 260.7211 15.08830648 33653,6917.909,95.438,540.103,539.445,0.0
53181.0,STARLINK-4273,PAYLOAD,2023-02-15 08:38:33,15.08848259,0.0001542,53.2206,104.2624,84.2339,275.8829,0.00022541,3.302e-05,0.0,0 STARLINK-4273,1 53181U 22083BB  23046.36010820  .00003302  00000-0  22541-3 0  9993,2 53181  53.2206 104.2624 0001542  84.2339 275.8829 15.08848259 33724,6917.855,95.437,540.787,538.653,0.0
53181.0,STARLINK-4273,PAYLOAD,2023-02-15 10:13:55,15.08860019,0.0001496,53.2203,103.9595,111.3892,248.726,0.00018706,2.692e-05,0.0,0 STARLINK-4273,1 53181U 22083BB  23046.42633995  .00002692  00000-0  18706-3 0  9993,2 53181  53.2203 103.9595 0001496 111.3892 248.7260 15.08860019 33735,6917.819,95.436,540.719,538.649,0.0
53181.0,STARLINK-4273,PAYLOAD,2023-02-15 15:00:03,15.08873642,0.0001343,53.2206,103.0698,100.0229,260.0915,0.00034037,5.138e-05,0.0,0 STARLINK-4273,1 53181U 22083BB  23046.62504519  .00005138  00000-0  34037-3 0  9997,2 53181  53.2206 103.0698 0001343 100.0229 260.0915 15.08873642 33766,6917.778,95.435,540.572,538.714,0.0
53181.0,STARLINK-4273,PAYLOAD,2023-02-16 13:15:27,15.08880932,0.0001529,53.2187,98.9074,101.2461,258.8703,0.00068225,0.00010599,0.0,0 STARLINK-4273,1 53181U 22083BB  23047.55240596  .00010599  00000-0  68225-3 0  9995,2 53181  53.2187  98.9074 0001529 101.2461 258.8703 15.08880932 33907,6917.755,95.435,540.678,538.563,0.0
53181.0,STARLINK-4273,PAYLOAD,2023-02-17 13:06:17,15.08825926,0.0001576,53.2193,94.4438,123.1992,236.9152,-0.00046644,-7.701e-05,0.0,0 STARLINK-4273,1 53181U 22083BB  23048.54603418 -.00007701  00000-0 -46644-3 0  9995,2 53181  53.2193  94.4438 0001576 123.1992 236.9152 15.08825926 34057,6917.923,95.438,540.879,538.698,0.0
53181.0,STARLINK-4273,PAYLOAD,2023-02-17 19:27:49,15.08825662,0.0001005,53.2192,93.2575,98.2707,261.8399,-0.00032633,-5.475e-05,0.0,0 STARLINK-4273,1 53181U 22083BB  23048.81099371 -.00005475  00000-0 -32633-3 0  9991,2 53181  53.2192  93.2575 0001005  98.2707 261.8399 15.08825662 33458,6917.924,95.438,540.484,539.094,0.0
53181.0,STARLINK-4273,PAYLOAD,2023-02-18 09:46:18,15.08839866,9.34e-05,53.2184,90.582,91.0205,269.0895,0.00016414,2.325e-05,0.0,0 STARLINK-4273,1 53181U 22083BB  23049.40715598  .00002325  00000-0  16414-3 0  9991,2 53181  53.2184  90.5820 0000934  91.0205 269.0895 15.08839866 34189,6917.881,95.438,540.392,539.1,0.0
53181.0,STARLINK-4273,PAYLOAD,2023-02-18 12:57:04,15.08844141,9.2e-05,53.2184,89.987,90.2426,269.8671,0.00061263,9.477e-05,0.0,0 STARLINK-4273,1 53181U 22083BB  23049.53963791  .00009477  00000-0  61263-3 0  9992,2 53181  53.2184  89.9870 0000920  90.2426 269.8671 15.08844141 33560,6917.868,95.437,540.369,539.096,0.0
53181.0,STARLINK-4273,PAYLOAD,2023-02-19 09:37:05,15.08865794,9.07e-05,53.2185,86.1222,96.1698,263.9398,0.00085821,0.00013406,0.0,0 STARLINK-4273,1 53181U 22083BB  23050.40075323  .00013406  00000-0  85821-3 0  9998,2 53181  53.2185  86.1222 0000907  96.1698 263.9398 15.08865794 34336,6917.802,95.436,540.294,539.039,0.0
53181.0,STARLINK-4273,PAYLOAD,2023-02-19 12:47:51,15.08872597,8.99e-05,53.2181,85.5268,94.4801,265.6294,0.00097274,0.00015241,0.0,0 STARLINK-4273,1 53181U 22083BB  23050.53323016  .00015241  00000-0  97274-3 0  9991,2 53181  53.2181  85.5268 0000899  94.4801 265.6294 15.08872597 33716,6917.781,95.435,540.268,539.024,0.0
53181.0,STARLINK-4273,PAYLOAD,2023-02-19 19:09:23,15.0884913,6.23e-05,53.2179,84.3373,108.4312,251.6747,2.9233e-06,-2.41e-06,0.0,0 STARLINK-4273,1 53181U 22083BB  23050.79819094 -.00000241  00000-0  29233-5 0  9992,2 53181  53.2179  84.3373 0000623 108.4312 251.6747 15.08849130 34395,6917.852,95.437,540.148,539.287,0.0
53181.0,STARLINK-4273,PAYLOAD,2023-02-20 11:03:14,15.08854752,0.000118,53.2176,81.3627,85.7297,274.3829,0.00028327,4.225e-05,0.0,0 STARLINK-4273,1 53181U 22083BB  23051.46058925  .00004225  00000-0  28327-3 0  9991,2 53181  53.2176  81.3627 0001180  85.7297 274.3829 15.08854752 33858,6917.835,95.437,540.517,538.884,0.0
53181.0,STARLINK-4273,PAYLOAD,2023-02-20 19:00:10,15.08838461,0.000109,53.2175,79.8767,94.4887,265.6229,-0.00011483,-2.115e-05,0.0,0 STARLINK-4273,1 53181U 22083BB  23051.79179214 -.00002115  00000-0 -11483-3 0  9995,2 53181  53.2175  79.8767 0001090  94.4887 265.6229 15.08838461 34549,6917.885,95.438,540.504,538.996,0.0
